PROMETHEUS 2-1          
1 41854U 16067G   23302.95335292  .00017149  00000+0  10893-2 0  9994
2 41854  98.0833  99.2815 0016155 121.0223 239.2593 15.08824801380784
PROMETHEUS 2-3          
1 41855U 16067H   23302.88161797  .00016520  00000+0  10512-2 0  9994
2 41855  98.0753  98.9252 0013694 130.5274 229.7148 15.08799486380772
DIDO-2                  
1 42000U 17008BE  23303.12874315  .00039863  00000+0  78266-3 0  9994
2 42000  97.1845 357.5407 0003592 255.9153 104.1698 15.47210616372747
PEASSS                  
1 42015U 17008BV  23303.43535160  .00323024  00000+0  15638-2 0  9994
2 42015  97.1817   9.2078 0003948 237.2917 122.7972 15.81658632373972
UCLSAT                  
1 42765U 17036A   23303.10510937  .00475403  00000+0  18141-2 0  9997
2 42765  97.1155 343.2435 0001971 257.6504 102.4547 15.86351974354368
AALTO-1                 
1 42775U 17036L   23303.82100863  .00035936  00000+0  83591-3 0  9995
2 42775  97.1385 330.4075 0007512 349.1434  10.9651 15.42199527353373
URSA MAIOR              
1 42776U 17036M   23303.86062633  .00043246  00000+0  90041-3 0  9993
2 42776  97.1383 332.2918 0006514 344.1091  15.9953 15.45462151353484
DIAMOND RED             
1 42783U 17036U   23303.04016050  .00059769  00000+0  10342-2 0  9995
2 42783  97.1337 335.5295 0004944 354.4289   5.6907 15.50733389353613
PEGASUS                 
1 42784U 17036V   23303.69038319  .00125698  00000+0  11779-2 0  9999
2 42784  97.1264 340.8079 0002074 315.1264  44.9829 15.66814038354035
DIAMOND GREEN           
1 42785U 17036W   23303.54769664  .00057353  00000+0  90459-3 0  9993
2 42785  97.1307 336.5311 0004414 350.1226   9.9940 15.53343637353719
DIAMOND BLUE            
1 42786U 17036X   23303.06281659  .00067468  00000+0  11266-2 0  9990
2 42786  97.1334 335.8425 0004407 348.3131  11.8019 15.51707917353626
SKCUBE                  
1 42789U 17036AA  23303.59883171  .00539187  11608-3  16369-2 0  9999
2 42789  97.1126 344.7200 0002788 247.9133 112.1845 15.92057895354287
CICERO 6                
1 42793U 17036AE  23303.08758066  .00051616  00000+0  10095-2 0  9998
2 42793  97.1319 335.2069 0004758 355.3413   4.7793 15.47259725353696
CORVUS BC2              
1 42846U 17042X   23303.78793053  .00003566  00000+0  32569-3 0  9998
2 42846  97.3764 137.0622 0009897 111.7605 248.4671 14.95600521342988
CORVUS BC1              
1 42847U 17042Y   23303.50271019  .00004843  00000+0  43917-3 0  9990
2 42847  97.3763 137.1619 0010057 110.9828 249.2471 14.95722531342953
MIRATA                  
1 43015U 17073C   23303.45226183  .00022812  00000+0  13246-2 0  9995
2 43015  97.6129 187.4849 0197362 322.8578  35.9122 14.97111655321696
MAKERSAT 0              
1 43016U 17073D   23303.12477399  .00019641  00000+0  12535-2 0  9993
2 43016  97.6090 184.2570 0216075 336.5927  22.5566 14.91399977321393
CORVUS BC3              
1 43118U 18004H   23303.45641218  .00043247  00000+0  86065-3 0  9999
2 43118  97.3140  18.2282 0005776  20.9080 339.2405 15.46789666322887
CICERO 7                
1 43143U 18004AJ  23303.80318351  .00607051  15133-3  17232-2 0  9990
2 43143  97.3057  36.1755 0005773 289.9847  70.0806 15.93335575323997
GOMX-4B                 
1 43196U 18015E   23303.13124161  .00035559  00000+0  81877-3 0  9998
2 43196  97.5929  98.6974 0012652  81.1957 279.0722 15.42455513319700
GOMX-4A                 
1 43197U 18015F   23303.78017832  .00037511  00000+0  74621-3 0  9995
2 43197  97.5913 102.2562 0011825  71.7984 288.4551 15.46774771320008
CUBEBEL-1 (BSUSAT-1)    
1 43666U 18083E   23303.82987516  .00087535  00000+0  14679-2 0  9998
2 43666  97.3638 337.2018 0006033   2.9957 357.1330 15.51499792278125
CICERO 10               
1 43690U 18088A   23303.82510009  .00035831  00000+0  79026-3 0  9999
2 43690  85.0276 340.3884 0011586  88.8209 271.4372 15.43672769276346
PROXIMA I               
1 43694U 18088E   23303.53483979  .00043190  00000+0  80461-3 0  9998
2 43694  85.0191 335.6043 0011562  55.6509 304.5839 15.48582225276640
PROXIMA II              
1 43696U 18088G   23303.11077917  .00051397  00000+0  96543-3 0  9991
2 43696  85.0200 335.9765 0011682  57.1687 303.0692 15.48320414276577
SIRION PATHFINDER-2     
1 43759U 18099B   23303.40715407  .00005695  00000+0  46275-3 0  9995
2 43759  97.5574   1.2135 0014109  17.7181 342.4532 14.99903661267881
CORVUS BC4              
1 43767U 18099K   23303.15175798  .00006204  00000+0  51078-3 0  9993
2 43767  97.5490 358.7095 0010089  30.7099 329.4713 14.99396545267746
MOVE-II                 
1 43780U 18099Y   23302.91957927  .00018975  00000+0  12624-2 0  9994
2 43780  97.5569   4.2688 0008984  58.8787 301.3321 15.07157870268005
SPACEBEE-7              
1 43816U 18099BL  23303.43765624  .00013723  00000+0  96535-3 0  9993
2 43816  97.5835   5.7331 0011265   7.3755 352.7635 15.05135512267635
SPACEBEE-5              
1 43817U 18099BM  23303.48422329  .00086177  00000+0  27278-2 0  9991
2 43817  97.5761  16.9520 0003360 310.6738  49.4211 15.32411748268297
SPACEBEE-6              
1 43818U 18099BN  23302.87778774  .00024733  00000+0  15037-2 0  9992
2 43818  97.5730   7.9504 0010799  19.6489 340.5154 15.10395797267863
SHIELDS 1               
1 43850U 18104B   23303.43156175  .00015273  00000+0  50493-3 0  9998
2 43850  85.0244  78.8594 0011399 207.8684 152.1954 15.31171536270788
STF-1                   
1 43852U 18104D   23303.84434586  .00103522  00000+0  14100-2 0  9999
2 43852  85.0171  73.6069 0007336 209.4065 150.6784 15.57154647271390
ZACUBE-2                
1 43907U 18111AH  23303.83666715  .00064798  00000+0  11045-2 0  9994
2 43907  97.1099 180.8837 0015174  79.5664 280.7298 15.51020823270091
LUME 1                  
1 43908U 18111AJ  23303.25335332  .00110765  00000+0  12834-2 0  9992
2 43908  97.1100 185.4745 0012460  70.4661 289.7941 15.61361959270347
MOVE-IIB                
1 44398U 19038N   23303.53140811  .00261674  00000+0  21241-2 0  9990
2 44398  97.6656 295.0471 0013443 132.7389 227.5006 15.69829174239643
SONATE                  
1 44400U 19038Q   23302.93439162  .00016269  00000+0  65447-3 0  9992
2 44400  97.6986 283.7752 0018336 193.9507 166.1225 15.24828675238743
LUCKY-7                 
1 44406U 19038W   23303.50244570  .00022145  00000+0  78192-3 0  9990
2 44406  97.6941 286.2842 0016883 181.6247 178.4941 15.29103103238960
BEESAT 9                
1 44412U 19038AC  23303.71077956  .00044555  00000+0  11389-2 0  9995
2 44412  97.6847 289.6944 0013329 164.9771 195.1872 15.39229739238931
JAISAT-1                
1 44419U 19038F   23302.92355164  .00052413  00000+0  13356-2 0  9992
2 44419  97.6829 289.9929 0012851 163.7702 196.3957 15.39291380239191
DUCHIFAT-3              
1 44854U 19089C   23303.85578274  .00013709  00000+0  84975-3 0  9994
2 44854  36.9618 358.9003 0006619 351.9609   8.1028 15.09141633213315
EYESAT-NANO             
1 44877U 19092E   23303.78776125  .00399567  00000+0  21286-2 0  9994
2 44877  97.4390 139.5556 0004661 327.6306  32.4675 15.79348983215150
M2 PATHFINDER           
1 45727U 20037E   23303.04115216  .00006374  00000+0  58601-3 0  9990
2 45727  97.7644 116.2463 0012021 168.4426 191.7073 14.95077974181386
NETSAT-4                
1 46504U 20068U   23303.82192492  .00011254  00000+0  69811-3 0  9993
2 46504  97.7773 251.1933 0012859  72.0795 288.1834 15.09829956169352
NETSAT-3                
1 46505U 20068V   23303.80889438  .00010990  00000+0  68737-3 0  9997
2 46505  97.7754 250.9196 0011997  78.9907 281.2670 15.09542752169350
NETSAT-1                
1 46506U 20068W   23303.09487809  .00008807  00000+0  56170-3 0  9997
2 46506  97.7762 250.0066 0010501  89.3490 270.8941 15.08904265169232
NETSAT-2                
1 46507U 20068X   23303.82624917  .00010529  00000+0  65520-3 0  9995
2 46507  97.7757 250.9049 0009965  92.4371 267.7999 15.09758691169309
SAI-1 NANOCONNECT-2     
1 47701U 21015C   23303.70030687  .00366798  00000+0  17190-2 0  9998
2 47701  97.3664  32.2053 0001702 287.4079  72.7004 15.82255160149276
WILDTRACKCUBE-SIMBA     
1 47941U 21022K   23303.84275457  .00013965  00000+0  75063-3 0  9992
2 47941  97.4802 198.5328 0016139 222.8646 137.1329 15.14888168143524
BEESAT-6                
1 47957U 21022AB  23301.69362592  .00043015  00000+0  16405-2 0  9990
2 47957  97.4772 199.9510 0011540 211.0616 148.9942 15.26488136143247
SMOG-1                  
1 47964U 21022AJ  23303.49439190  .00036307  00000+0  13028-2 0  9991
2 47964  97.4824 204.2550 0011275 185.7041 174.4072 15.28543802142680
BCCSAT-1                
1 48041U 21022AK  23303.17471864  .00037170  00000+0  14836-2 0  9994
2 48041  97.4820 202.2897 0009511 188.8022 171.3050 15.25023904142504
BEESAT-5                
1 48083U 21022AM  23303.46959839  .00042774  00000+0  15119-2 0  9996
2 48083  97.4632 202.1237 0011133 197.7085 162.3768 15.29000480142693
BEESAT-7                
1 48084U 21022AN  23303.66572251  .00042298  00000+0  15653-2 0  9992
2 48084  97.4758 202.1715 0011464 200.5995 159.4783 15.27490723142284
BEESAT-8                
1 48085U 21022AP  23303.52734803  .00018477  00000+0  86024-3 0  9994
2 48085  97.4844 200.5827 0014303 214.3557 145.6754 15.19883482142711
LEDSAT                  
1 49069U 21073D   23303.61066511  .00014049  00000+0  70575-3 0  9992
2 49069  97.4688  12.3404 0022646  14.1629 346.0234 15.17160244121411
